{
  "type": "FeatureCollection",
  "name": "Blok_Kebun_PT_EMJ",
  "crs": { "type": "name", "properties": { "name": "urn:ogc:def:crs:OGC:1.3:CRS84" } },
  "features": [
    {
      "type": "Feature",
      "properties": {
        "id_blok": "OPD A",
        "afdeling": "Afdeling 1",
        "estate": "Estate Sei Semujur",
        "luas_ha": 6.68,
        "target_sph": 138,
        "target_pokok": 922,
        "total_tertanam_ha": 0.89,
        "total_tertanam": 123,
        "persentase": 13.32,
        "status": "Sedang Berjalan",
        "varietas_bibit": "Dami Mas",
        "tahun_tanam": 2026
      },
      "geometry": {
        "type": "Polygon",
        "coordinates": [
          [
            [117.022487, -0.757339],
            [117.025543, -0.757339],
            [117.025543, -0.759117],
            [117.022487, -0.759117],
            [117.022487, -0.757339]
          ]
        ]
      }
    },
    {
      "type": "Feature",
      "properties": {
        "id_blok": "OPD C",
        "afdeling": "Afdeling 1",
        "estate": "Estate Sei Semujur",
        "luas_ha": 6.66,
        "target_sph": 138,
        "target_pokok": 919,
        "total_tertanam_ha": 3.58,
        "total_tertanam": 494,
        "persentase": 53.75,
        "status": "Sedang Berjalan",
        "varietas_bibit": "Marihat",
        "tahun_tanam": 2026
      },
      "geometry": {
        "type": "Polygon",
        "coordinates": [
          [
            [117.025668, -0.757344],
            [117.028724, -0.757344],
            [117.028724, -0.759117],
            [117.025668, -0.759117],
            [117.025668, -0.757344]
          ]
        ]
      }
    },
    {
      "type": "Feature",
      "properties": {
        "id_blok": "OPD B",
        "afdeling": "Afdeling 1",
        "estate": "Estate Sei Semujur",
        "luas_ha": 6.70,
        "target_sph": 138,
        "target_pokok": 925,
        "total_tertanam_ha": 0.00,
        "total_tertanam": 0,
        "persentase": 0.00,
        "status": "Belum Mulai",
        "varietas_bibit": "Dami Mas",
        "tahun_tanam": 2026
      },
      "geometry": {
        "type": "Polygon",
        "coordinates": [
          [
            [117.022487, -0.759243],
            [117.025543, -0.759243],
            [117.025543, -0.761027],
            [117.022487, -0.761027],
            [117.022487, -0.759243]
          ]
        ]
      }
    },
    {
      "type": "Feature",
      "properties": {
        "id_blok": "OPD D",
        "afdeling": "Afdeling 1",
        "estate": "Estate Sei Semujur",
        "luas_ha": 6.65,
        "target_sph": 138,
        "target_pokok": 918,
        "total_tertanam_ha": 0.00,
        "total_tertanam": 0,
        "persentase": 0.00,
        "status": "Belum Mulai",
        "varietas_bibit": "PPKS 239",
        "tahun_tanam": 2026
      },
      "geometry": {
        "type": "Polygon",
        "coordinates": [
          [
            [117.025668, -0.759243],
            [117.028724, -0.759243],
            [117.028724, -0.761013],
            [117.025668, -0.761013],
            [117.025668, -0.759243]
          ]
        ]
      }
    }
  ]
}
